{
"type": "FeatureCollection",
"name": "nha_trang_cs",
"crs": { "type": "name", "properties": { "name": "urn:ogc:def:crs:OGC:1.3:CRS84" } },
"features": [
{"type":"Feature","properties":{"Name":"Vincom Plaza Lê Thánh Tôn, hầm B1","Latitude":12.24283,"Longitude":109.193504,"Province I":2128.0,"temp_name":"cs_1","Port_150KW":0,"Port_60KW":2,"Port_30KW":1,"Port_11KW":0,"Port_180KW":0,"Port_250KW":0,"station_id":null,"type":null},"geometry":{"type":"MultiPoint","coordinates":[[109.193504,12.24283]]}},
{"type":"Feature","properties":{"Name":"TTTM Gold Coast Nha Trang","Latitude":12.247871,"Longitude":109.194923,"Province I":2128.0,"temp_name":"cs_2","Port_150KW":0,"Port_60KW":4,"Port_30KW":0,"Port_11KW":2,"Port_180KW":0,"Port_250KW":0,"station_id":null,"type":null},"geometry":{"type":"MultiPoint","coordinates":[[109.194923,12.247871]]}},
{"type":"Feature","properties":{"Name":"Vincom Plaza Thái Nguyên - Nha Trang","Latitude":12.24869,"Longitude":109.186546,"Province I":2128.0,"temp_name":"cs_3","Port_150KW":0,"Port_60KW":4,"Port_30KW":2,"Port_11KW":2,"Port_180KW":0,"Port_250KW":0,"station_id":null,"type":null},"geometry":{"type":"MultiPoint","coordinates":[[109.186546,12.24869]]}},
{"type":"Feature","properties":{"Name":"Siêu thị Big C, Go! Nha Trang","Latitude":12.25603,"Longitude":109.170563,"Province I":2128.0,"temp_name":"cs_4","Port_150KW":0,"Port_60KW":4,"Port_30KW":2,"Port_11KW":2,"Port_180KW":0,"Port_250KW":0,"station_id":null,"type":null},"geometry":{"type":"MultiPoint","coordinates":[[109.170563,12.25603]]}},
{"type":"Feature","properties":{"Name":"Bãi đỗ xe tư nhân Minh Anh","Latitude":12.257361,"Longitude":109.127609,"Province I":2128.0,"temp_name":"cs_5","Port_150KW":0,"Port_60KW":17,"Port_30KW":0,"Port_11KW":4,"Port_180KW":0,"Port_250KW":0,"station_id":null,"type":null},"geometry":{"type":"MultiPoint","coordinates":[[109.127609,12.257361]]}},
{"type":"Feature","properties":{"Name":"Bãi đỗ xe Champa Island","Latitude":12.26399,"Longitude":109.192024,"Province I":2128.0,"temp_name":"cs_6","Port_150KW":0,"Port_60KW":0,"Port_30KW":3,"Port_11KW":1,"Port_180KW":0,"Port_250KW":0,"station_id":null,"type":null},"geometry":{"type":"MultiPoint","coordinates":[[109.192024,12.26399]]}},
{"type":"Feature","properties":{"Name":"Vincom Plaza Trần Phú, mặt phía trước TTTM","Latitude":12.233131,"Longitude":109.197571,"Province I":2128.0,"temp_name":"cs_7","Port_150KW":4,"Port_60KW":0,"Port_30KW":0,"Port_11KW":0,"Port_180KW":0,"Port_250KW":0,"station_id":null,"type":null},"geometry":{"type":"MultiPoint","coordinates":[[109.197294122942253,12.232959559580475]]}},
{"type":"Feature","properties":{"Name":"Vinpearl Hòn Tre, bãi xe Quảng trường","Latitude":12.20022,"Longitude":109.213959,"Province I":2128.0,"temp_name":"cs_8","Port_150KW":0,"Port_60KW":20,"Port_30KW":4,"Port_11KW":4,"Port_180KW":0,"Port_250KW":1,"station_id":null,"type":null},"geometry":{"type":"MultiPoint","coordinates":[[109.214044736178195,12.19996299120783]]}},
{"type":"Feature","properties":{"Name":"Trạm dừng nghỉ Vỹ Lâm","Latitude":12.279725,"Longitude":109.130333,"Province I":2128.0,"temp_name":"cs_11","Port_150KW":0,"Port_60KW":14,"Port_30KW":0,"Port_11KW":0,"Port_180KW":2,"Port_250KW":0,"station_id":null,"type":null},"geometry":{"type":"MultiPoint","coordinates":[[109.130333668830247,12.279725656839917]]}},
{"type":"Feature","properties":{"Name":"Bãi đỗ xe tư nhân A Lập","Latitude":12.283599,"Longitude":109.177155,"Province I":2128.0,"temp_name":"cs_9","Port_150KW":0,"Port_60KW":12,"Port_30KW":0,"Port_11KW":0,"Port_180KW":0,"Port_250KW":0,"station_id":null,"type":null},"geometry":{"type":"MultiPoint","coordinates":[[109.177154998420619,12.283599020356917]]}},
{"type":"Feature","properties":{"Name":"Bến Du Thuyền Ana Marina","Latitude":12.29568,"Longitude":109.22184,"Province I":2128.0,"temp_name":"cs_10","Port_150KW":0,"Port_60KW":14,"Port_30KW":0,"Port_11KW":0,"Port_180KW":0,"Port_250KW":0,"station_id":null,"type":null},"geometry":{"type":"MultiPoint","coordinates":[[109.221840106531218,12.29568094394565]]}},
{"type":"Feature","properties":{"Name":null,"Latitude":null,"Longitude":null,"Province I":null,"temp_name":"cs11","Port_150KW":0,"Port_60KW":10,"Port_30KW":0,"Port_11KW":0,"Port_180KW":0,"Port_250KW":0,"station_id":400.0,"type":"new_station"},"geometry":{"type":"Point","coordinates":[109.224999577657357,12.214166819473785]}},
{"type":"Feature","properties":{"Name":null,"Latitude":null,"Longitude":null,"Province I":null,"temp_name":"cs12","Port_150KW":0,"Port_60KW":0,"Port_30KW":0,"Port_11KW":0,"Port_180KW":0,"Port_250KW":1,"station_id":401.0,"type":"new_station"},"geometry":{"type":"Point","coordinates":[109.226666244317272,12.160000153022617]}},
{"type":"Feature","properties":{"Name":null,"Latitude":null,"Longitude":null,"Province I":null,"temp_name":"cs13","Port_150KW":4,"Port_60KW":0,"Port_30KW":0,"Port_11KW":0,"Port_180KW":0,"Port_250KW":0,"station_id":402.0,"type":"new_station"},"geometry":{"type":"Point","coordinates":[109.209999577718108,12.360833485556951]}},
{"type":"Feature","properties":{"Name":null,"Latitude":null,"Longitude":null,"Province I":null,"temp_name":"cs14","Port_150KW":0,"Port_60KW":0,"Port_30KW":0,"Port_11KW":0,"Port_180KW":0,"Port_250KW":1,"station_id":403.0,"type":"new_station"},"geometry":{"type":"Point","coordinates":[109.256666244195756,12.173333486302905]}},
{"type":"Feature","properties":{"Name":null,"Latitude":null,"Longitude":null,"Province I":null,"temp_name":"cs15","Port_150KW":0,"Port_60KW":10,"Port_30KW":0,"Port_11KW":0,"Port_180KW":0,"Port_250KW":0,"station_id":404.0,"type":"new_station"},"geometry":{"type":"Point","coordinates":[109.294166244043865,12.266666819264918]}},
{"type":"Feature","properties":{"Name":null,"Latitude":null,"Longitude":null,"Province I":null,"temp_name":"cs16","Port_150KW":0,"Port_60KW":10,"Port_30KW":0,"Port_11KW":0,"Port_180KW":0,"Port_250KW":0,"station_id":405.0,"type":"new_station"},"geometry":{"type":"Point","coordinates":[109.234999577616847,12.205833486173606]}},
{"type":"Feature","properties":{"Name":null,"Latitude":null,"Longitude":null,"Province I":null,"temp_name":"cs17","Port_150KW":0,"Port_60KW":10,"Port_30KW":0,"Port_11KW":0,"Port_180KW":0,"Port_250KW":0,"station_id":406.0,"type":"new_station"},"geometry":{"type":"Point","coordinates":[109.227499577647222,12.1916668195633]}},
{"type":"Feature","properties":{"Name":null,"Latitude":null,"Longitude":null,"Province I":null,"temp_name":"cs18","Port_150KW":0,"Port_60KW":10,"Port_30KW":0,"Port_11KW":0,"Port_180KW":0,"Port_250KW":0,"station_id":407.0,"type":"new_station"},"geometry":{"type":"Point","coordinates":[109.175832911189829,12.156666819702545]}},
{"type":"Feature","properties":{"Name":null,"Latitude":null,"Longitude":null,"Province I":null,"temp_name":"cs19","Port_150KW":4,"Port_60KW":0,"Port_30KW":0,"Port_11KW":0,"Port_180KW":0,"Port_250KW":0,"station_id":408.0,"type":"new_station"},"geometry":{"type":"Point","coordinates":[109.327499577242179,12.189166819573247]}},
{"type":"Feature","properties":{"Name":null,"Latitude":null,"Longitude":null,"Province I":null,"temp_name":"cs20","Port_150KW":4,"Port_60KW":0,"Port_30KW":0,"Port_11KW":0,"Port_180KW":0,"Port_250KW":0,"station_id":409.0,"type":"new_station"},"geometry":{"type":"Point","coordinates":[109.15999957792063,12.318333485726033]}},
{"type":"Feature","properties":{"Name":null,"Latitude":null,"Longitude":null,"Province I":null,"temp_name":"cs21","Port_150KW":0,"Port_60KW":10,"Port_30KW":0,"Port_11KW":0,"Port_180KW":0,"Port_250KW":0,"station_id":410.0,"type":"new_station"},"geometry":{"type":"Point","coordinates":[109.243332910916422,12.287500152515367]}},
{"type":"Feature","properties":{"Name":null,"Latitude":null,"Longitude":null,"Province I":null,"temp_name":"cs22","Port_150KW":0,"Port_60KW":10,"Port_30KW":0,"Port_11KW":0,"Port_180KW":0,"Port_250KW":0,"station_id":411.0,"type":"new_station"},"geometry":{"type":"Point","coordinates":[109.31916624394259,12.373333485507221]}},
{"type":"Feature","properties":{"Name":null,"Latitude":null,"Longitude":null,"Province I":null,"temp_name":"cs23","Port_150KW":0,"Port_60KW":10,"Port_30KW":0,"Port_11KW":0,"Port_180KW":0,"Port_250KW":0,"station_id":412.0,"type":"new_station"},"geometry":{"type":"Point","coordinates":[109.263332910835416,12.290000152505423]}},
{"type":"Feature","properties":{"Name":null,"Latitude":null,"Longitude":null,"Province I":null,"temp_name":"cs24","Port_150KW":0,"Port_60KW":10,"Port_30KW":0,"Port_11KW":0,"Port_180KW":0,"Port_250KW":0,"station_id":413.0,"type":"new_station"},"geometry":{"type":"Point","coordinates":[109.198332911098703,12.36500015220704]}},
{"type":"Feature","properties":{"Name":null,"Latitude":null,"Longitude":null,"Province I":null,"temp_name":"cs25","Port_150KW":0,"Port_60KW":0,"Port_30KW":2,"Port_11KW":0,"Port_180KW":0,"Port_250KW":0,"station_id":414.0,"type":"new_station"},"geometry":{"type":"Point","coordinates":[109.249166244226132,12.370000152187147]}},
{"type":"Feature","properties":{"Name":"Vinpearl Hòn Tre, bãi xe đối diện","Latitude":12.1985673,"Longitude":109.2041845,"Province I":2128.0,"temp_name":"cs_9","Port_150KW":0,"Port_60KW":20,"Port_30KW":4,"Port_11KW":4,"Port_180KW":0,"Port_250KW":1,"station_id":null,"type":null},"geometry":{"type":"MultiPoint","coordinates":[[109.204180036238668,12.19857468549306]]}}
]
}
